0 TBA - TO BE ASSIGNED
1 24665U 96067A   20086.14077133 -.00000185  00000-0  00000+0 0  9997
2 24665   8.0239  49.7396 0008279  24.8747 159.5087  0.98383683 85672
0 TBA - TO BE ASSIGNED
1 24674U 96070A   20085.56410177 +.00000032 +00000-0 +00000-0 0  9996
2 24674 005.4356 066.6873 0006289 309.4096 188.5449 01.00274314085161
0 TBA - TO BE ASSIGNED
1 24674U 96070A   20086.25506045  .00000034  00000-0  00000+0 0  9994
2 24674   5.4370  66.6836 0006315 310.2982  77.0913  1.00274493 85166
0 TBA - TO BE ASSIGNED
1 24677U 96071A   20085.94462782 -.00000002 +00000-0 -19128-4 0  9995
2 24677 082.9377 081.9320 0025113 105.3335 313.3488 13.71506927164270
0 TBA - TO BE ASSIGNED
1 24677U 96071A   20086.09204076 -.00000004  00000-0 -21403-4 0  9993
2 24677  82.9377  81.8233 0025118 104.9457 321.1682 13.71506912164555
0 TBA - TO BE ASSIGNED
1 24678U 96071B   20086.66774919  .00000087  00000-0  77143-4 0  9996
2 24678  82.9384  58.4021 0025133  18.8738 154.2996 13.73636780166296
0 TBA - TO BE ASSIGNED
1 24678U 96071B   20085.64830139 +.00000090 +00000-0 +79774-4 0  9996
2 24678 082.9381 059.1561 0025194 021.6559 153.0915 13.73636648166099
0 TBA - TO BE ASSIGNED
1 24700U 95062C   20074.89490248 -.00000297  00000-0  00000+0 0  9990
2 24700   6.2919  42.6755 8235046  76.3854  20.0579  1.00378740 85851
0 TBA - TO BE ASSIGNED
1 24714U 97002B   20085.72560920 -.00000262 +00000-0 +00000-0 0  9993
2 24714 009.1964 042.9634 0000311 130.7278 027.9540 00.99385924084446
0 TBA - TO BE ASSIGNED
1 24720U 97005A   20086.71252463 -.00000029  00000-0  24210-3 0  9996
2 24720  31.2722 293.1891 5990722 121.7660 340.4963  3.83064028322442
0 TBA - TO BE ASSIGNED
1 24724U 91003G   20086.07101661  .00000003  00000-0  38770-3 0  9991
2 24724   6.0249  61.4731 6779151 111.9365 329.8431  2.81373084240198
0 COSMOS 2337
1 24725U 97006A   20086.02645726  .00000004  00000-0 -39927-4 0  9999
2 24725  82.6042 280.9893 0008639 222.9516 137.0900 12.60671034 63522
0 COSMOS 2337
1 24725U 97006A   20085.62964520 +.00000009 +00000-0 -70552-5 0  9995
2 24725 082.6042 281.2409 0008620 223.9148 136.1258 12.60671075063241
0 TBA - TO BE ASSIGNED
1 24726U 97006B   20085.86093772 +.00000009 +00000-0 -73586-5 0  9994
2 24726 082.5953 268.0514 0005013 192.6403 167.4562 12.61341401063828
0 TBA - TO BE ASSIGNED
1 24726U 97006B   20086.01957819  .00000005  00000-0 -31422-4 0  9991
2 24726  82.5953 267.9506 0005020 192.2928 167.8041 12.61341395 64091
0 TBA - TO BE ASSIGNED
1 24727U 97006C   20085.55489483 -.00000001 +00000-0 -64254-4 0  9993
2 24727 082.6001 261.7325 0000989 124.2896 296.4058 12.62326021064587
0 TBA - TO BE ASSIGNED
1 24727U 97006C   20086.73293001  .00000002  00000-0 -47525-4 0  9995
2 24727  82.6002 260.9830 0001008 124.5766 246.8806 12.62326025 65026
0 TBA - TO BE ASSIGNED
1 24728U 97006D   20086.81076147  .00000048  00000-0  20401-3 0  9997
2 24728  82.6011 245.9922 0007527 312.3414  47.7040 12.63858416 66261
0 TBA - TO BE ASSIGNED
1 24728U 97006D   20085.78165173 +.00000053 +00000-0 +23180-3 0  9993
2 24728 082.6010 246.6487 0007557 314.7791 045.2690 12.63858356066134
0 TBA - TO BE ASSIGNED
1 24729U 97006E   20086.05961972 -.00000002  00000-0 -71149-4 0  9991
2 24729  82.5948 251.3893 0004266  20.5698 339.5569 12.62920987 65389
0 TBA - TO BE ASSIGNED
1 24729U 97006E   20086.61416663 -.00000002  00000-0 -71149-4 0  9995
2 24729  82.5950 251.0357 0004232  19.6469 340.4784 12.62920993 65457
0 TBA - TO BE ASSIGNED
1 24729U 97006E   20086.21806165 -.00000002  00000-0 -71149-4 0  9991
2 24729  82.5947 251.2881 0004245  20.5193 339.6072 12.62920992 65400
0 TBA - TO BE ASSIGNED
1 24730U 97006F   20085.78554169 +.00000058 +00000-0 +26382-3 0  9995
2 24730 082.6028 263.0236 0003208 077.9590 282.1861 12.62426530064926
0 TBA - TO BE ASSIGNED
1 24730U 97006F   20086.81581877  .00000055  00000-0  24838-3 0  9997
2 24730  82.6030 262.3684 0003218  77.4538 282.6911 12.62426520 65051
0 SL-14 R/B
1 24731U 97006G   20086.13543177  .00000012  00000-0  94117-5 0  9996
2 24731  82.6014 327.7798 0042367  73.2753  81.3792 12.55247793 58976
0 SL-14 R/B
1 24731U 97006G   20085.79705279 +.00000012 +00000-0 +87280-5 0  9993
2 24731 082.6015 327.9923 0042370 074.0136 352.2999 12.55247793058684
0 TBA - TO BE ASSIGNED
1 24732U 97007A   20085.96438605  .00000005  00000-0  00000+0 0  9991
2 24732   8.9245  43.4692 0006688 350.1946 201.0045  1.00273351 84479
0 TBA - TO BE ASSIGNED
1 24737U 97008A   20086.20667799  .00000030  00000-0  00000+0 0  9991
2 24737  13.5293  20.4779 0000782 359.1299 246.6256  1.00277679  8808
0 TBA - TO BE ASSIGNED
1 24739U 97008C   20086.34468022  .00000097  00000-0  27837-3 0  9990
2 24739  28.3449  53.8052 7165773  31.7900 356.0453  2.36891994  8461
0 TBA - TO BE ASSIGNED
1 24739U 97008C   20085.50049359 +.00000087 +00000-0 +27029-3 0  9997
2 24739 028.3436 054.1179 7165784 031.2774 356.1187 02.36891672008465
0 TBA - TO BE ASSIGNED
1 24740U 97008D   20084.89966197 +.00000066 +00000-0 +00000-0 0  9992
2 24740 013.6894 021.2259 0019446 126.0147 234.1511 00.99496565003155
0 TBA - TO BE ASSIGNED
1 24740U 97008D   20085.90468217  .00000073  00000-0  00000+0 0  9992
2 24740  13.6900  21.2175 0019480 125.9635 234.2001  0.99496830  3147
0 TBA - TO BE ASSIGNED
1 24751U 91003K   20085.96212437 -.00000364  00000-0 -66387-3 0  9999
2 24751   7.4629 287.6399 6278456 354.4914   0.9932  3.49358287274376
0 TBA - TO BE ASSIGNED
1 24752U 91006C   20085.90112969 +.00000175 +00000-0 +15193-3 0  9993
2 24752 082.9138 310.6139 0022916 288.4541 084.6613 13.80610337237527
0 TBA - TO BE ASSIGNED
1 24752U 91006C   20086.07415074  .00000175  00000-0  15230-3 0  9997
2 24752  82.9138 310.4840 0022910 287.9404 224.6368 13.80610404237641
0 TBA - TO BE ASSIGNED
1 24753U 97012A   20086.20570372 -.00000026  00000-0  10010-4 0  9997
2 24753  99.0272 101.8547 0009856  83.2926 276.9368 14.15885830186689
0 TBA - TO BE ASSIGNED
1 24753U 97012A   20085.85237154 -.00000021 +00000-0 +12471-4 0  9993
2 24753 099.0272 101.4968 0009858 084.1920 276.0377 14.15885809186382
0 TBA - TO BE ASSIGNED
1 24756U 97012B   20085.80698951 +.00034158 +00000-0 +88114-3 0  9990
2 24756 098.8059 022.2504 0002352 130.1504 229.9943 15.39106312219872
0 TBA - TO BE ASSIGNED
1 24756U 97012B   20086.32709018  .00034131  00000-0  87934-3 0  9995
2 24756  98.8059  22.8748 0002443 130.3288 229.8167 15.39144484220174
0 TBA - TO BE ASSIGNED
1 24761U 97015A   20085.62709115  .00000548  00000-0  00000+0 0  9994
2 24761  66.9057 347.4035 6397684 180.3400 178.8670  2.00440417168206
0 TBA - TO BE ASSIGNED
1 24768U 97016A   20085.48799397 -.00000021 +00000-0 +00000-0 0  9995
2 24768 009.9905 039.8128 0093186 355.0471 001.9746 00.98752034083471
0 TBA - TO BE ASSIGNED
1 24769U 97016B   20086.55223925  .00000055  00000-0  00000+0 0  9999
2 24769   6.8579  55.0467 0006287 287.7383 286.1429  0.99118023 83650
0 TBA - TO BE ASSIGNED
1 24772U 97017A   20086.85535809  .00000038  00000-0  25094-4 0  9990
2 24772  82.9266   3.7264 0026892  83.1561 338.2428 13.71414087148425
0 TBA - TO BE ASSIGNED
1 24772U 97017A   20085.90905853 +.00000036 +00000-0 +23169-4 0  9994
2 24772 082.9267 004.4247 0026887 085.6420 346.4134 13.71414062347452
0 TBA - TO BE ASSIGNED
1 24772U 97017A   20085.83322946  .00000038  00000-0  25037-4 0  9990
2 24772  82.9267   4.4807 0026886  85.8358 332.0548 13.71414077148281
0 TBA - TO BE ASSIGNED
1 24773U 97017B   20085.85157874 +.00000065 +00000-0 +53776-4 0  9990
2 24773 082.9245 342.9894 0024705 009.0870 059.4459 13.73641980149648
0 TBA - TO BE ASSIGNED
1 24773U 97017B   20086.72233537  .00000067  00000-0  55563-4 0  9996
2 24773  82.9243 342.3442 0024648   6.7058  45.3929 13.73642072150042
0 DMSP 5D-2 F14 DEB
1 24777U 97012D   20085.92835911 +.00002314 +00000-0 +41001-3 0  9998
2 24777 098.8608 218.1532 0003531 163.6156 196.5161 14.68388205207115
0 DMSP 5D-2 F14 DEB
1 24778U 97012E   20085.84263178 +.00000780 +00000-0 +21797-3 0  9995
2 24778 098.8184 041.1235 0005087 127.3393 285.6163 14.49105082199804
0 DMSP 5D-2 F14 DEB
1 24778U 97012E   20086.74325244  .00000773  00000-0  21603-3 0  9996
2 24778  98.8184  42.0643 0005187 124.7417 303.8430 14.49106510200165
0 TBA - TO BE ASSIGNED
1 24786U 97019A   20085.94771462  .00000070  00000-0  00000+0 0  9994
2 24786  10.5078  35.7285 0024652 190.9217   2.4132  0.99121193 83512
0 IRIDIUM 7
1 24793U 97020B   20085.53744545 +.00000072 +00000-0 +18483-4 0  9992
2 24793 086.3932 255.7967 0001924 091.6162 268.5254 14.34317650198071
0 IRIDIUM 7
1 24793U 97020B   20086.37460935  .00000064  00000-0  15793-4 0  9995
2 24793  86.3933 255.4463 0001919  91.8665 268.2751 14.34317692198417
0 TBA - TO BE ASSIGNED
1 24795U 97020D   20085.87717018 +.00000242 +00000-0 +23110-4 0  9998
2 24795 086.3992 228.2455 0140298 042.8562 318.3491 14.80233595202323
0 TBA - TO BE ASSIGNED
1 24795U 97020D   20086.82357765  .00000232  00000-0  21956-4 0  9998
2 24795  86.3994 227.8200 0140185  39.5684 321.5668 14.80233964202491
0 IRIDIUM 4
1 24796U 97020E   20086.38266230  .00000074  00000-0  18961-4 0  9992
2 24796  86.3929 253.5956 0002060  91.6769 268.4663 14.35238136198625
0 IRIDIUM 4
1 24796U 97020E   20085.75519169 +.00000078 +00000-0 +20376-4 0  9991
2 24796 086.3928 253.8586 0002060 091.5999 268.5433 14.35238076198506
0 TBA - TO BE ASSIGNED
1 24797U 97020F   20085.64437390 +.00000112 +00000-0 +18419-4 0  9999
2 24797 086.8993 342.5718 0224896 180.6621 240.8694 14.44162334204022
0 TBA - TO BE ASSIGNED
1 24797U 97020F   20086.20891698  .00000112  00000-0  18355-4 0  9996
2 24797  86.8993 342.3652 0224969 178.7780 295.9206 14.44162437204138
